{
  "type": "FeatureCollection",
  "features": [
    {
      "type": "Feature",
      "properties": {
        "norad_id": 30405,
        "name": "FENGYUN 1C DEB",
        "group": "fengyun-1c-debris",
        "lat": -10.784828232653437,
        "lon": 94.0957502699942,
        "alt_km": 823.438242099277,
        "timestamp": "2025-12-24T07:45:06.475834+00:00",
        "meta_object_name": "FENGYUN 1C DEB",
        "meta_object_id": "1999-025ADU",
        "meta_epoch": "2025-12-23T17:23:47.325984",
        "meta_mean_motion": 14.29001773,
        "meta_eccentricity": 0.0050918,
        "meta_inclination": 98.7933,
        "meta_ra_of_asc_node": 91.8031,
        "meta_arg_of_pericenter": 122.5857,
        "meta_mean_anomaly": 31.7271,
        "meta_ephemeris_type": 0,
        "meta_classification_type": "U",
        "meta_norad_cat_id": 30405,
        "meta_element_set_no": 999,
        "meta_rev_at_epoch": 97552,
        "meta_bstar": 0.0015940083,
        "meta_mean_motion_dot": 4.046e-05,
        "meta_mean_motion_ddot": 0,
        "tle_line1": "1 30405U 99025ADU 25357.72485331  .00004046  00000+0  15940-2 0  9996",
        "tle_line2": "2 30405  98.7933  91.8031 0050918 122.5857  31.7271 14.29001773975521"
      },
      "geometry": {
        "type": "Point",
        "coordinates": [
          94.0957502699942,
          -10.784828232653437
        ]
      }
    },
    {
      "type": "Feature",
      "properties": {
        "norad_id": 30406,
        "name": "FENGYUN 1C DEB",
        "group": "fengyun-1c-debris",
        "lat": -72.5569384847473,
        "lon": -83.5178571810818,
        "alt_km": 893.404516728102,
        "timestamp": "2025-12-24T07:45:06.475844+00:00",
        "meta_object_name": "FENGYUN 1C DEB",
        "meta_object_id": "1999-025ADV",
        "meta_epoch": "2025-12-23T23:20:35.366784",
        "meta_mean_motion": 13.59256681,
        "meta_eccentricity": 0.02829541,
        "meta_inclination": 98.6211,
        "meta_ra_of_asc_node": 247.304,
        "meta_arg_of_pericenter": 330.7887,
        "meta_mean_anomaly": 43.1959,
        "meta_ephemeris_type": 0,
        "meta_classification_type": "U",
        "meta_norad_cat_id": 30406,
        "meta_element_set_no": 999,
        "meta_rev_at_epoch": 93319,
        "meta_bstar": 0.0020146524,
        "meta_mean_motion_dot": 1.894e-05,
        "meta_mean_motion_ddot": 0,
        "tle_line1": "1 30406U 99025ADV 25357.97263156  .00001894  00000+0  20147-2 0  9996",
        "tle_line2": "2 30406  98.6211 247.3040 0282954 330.7887  43.1959 13.59256681933190"
      },
      "geometry": {
        "type": "Point",
        "coordinates": [
          -83.5178571810818,
          -72.5569384847473
        ]
      }
    },
    {
      "type": "Feature",
      "properties": {
        "norad_id": 30409,
        "name": "FENGYUN 1C DEB",
        "group": "fengyun-1c-debris",
        "lat": 80.12904371136312,
        "lon": -74.02651071640288,
        "alt_km": 917.0292706881501,
        "timestamp": "2025-12-24T07:45:06.475854+00:00",
        "meta_object_name": "FENGYUN 1C DEB",
        "meta_object_id": "1999-025ADY",
        "meta_epoch": "2025-12-23T23:03:22.394304",
        "meta_mean_motion": 14.03767725,
        "meta_eccentricity": 0.01674262,
        "meta_inclination": 98.4741,
        "meta_ra_of_asc_node": 344.5911,
        "meta_arg_of_pericenter": 334.0148,
        "meta_mean_anomaly": 79.1719,
        "meta_ephemeris_type": 0,
        "meta_classification_type": "U",
        "meta_norad_cat_id": 30409,
        "meta_element_set_no": 999,
        "meta_rev_at_epoch": 96587,
        "meta_bstar": 0.00077607922,
        "meta_mean_motion_dot": 1.343e-05,
        "meta_mean_motion_ddot": 0,
        "tle_line1": "1 30409U 99025ADY 25357.96067586  .00001343  00000+0  77608-3 0  9991",
        "tle_line2": "2 30409  98.4741 344.5911 0167426 334.0148  79.1719 14.03767725965878"
      },
      "geometry": {
        "type": "Point",
        "coordinates": [
          -74.02651071640288,
          80.12904371136312
        ]
      }
    },
    {
      "type": "Feature",
      "properties": {
        "norad_id": 30411,
        "name": "FENGYUN 1C DEB",
        "group": "fengyun-1c-debris",
        "lat": 65.06101726999053,
        "lon": 107.31162651728548,
        "alt_km": 791.2640229941317,
        "timestamp": "2025-12-24T07:45:06.475864+00:00",
        "meta_object_name": "FENGYUN 1C DEB",
        "meta_object_id": "1999-025AEA",
        "meta_epoch": "2025-12-23T07:20:36.864672",
        "meta_mean_motion": 14.07706849,
        "meta_eccentricity": 0.01236375,
        "meta_inclination": 98.5815,
        "meta_ra_of_asc_node": 267.3961,
        "meta_arg_of_pericenter": 76.8329,
        "meta_mean_anomaly": 284.6602,
        "meta_ephemeris_type": 0,
        "meta_classification_type": "U",
        "meta_norad_cat_id": 30411,
        "meta_element_set_no": 999,
        "meta_rev_at_epoch": 96132,
        "meta_bstar": 0.0016588698,
        "meta_mean_motion_dot": 2.969e-05,
        "meta_mean_motion_ddot": 0,
        "tle_line1": "1 30411U 99025AEA 25357.30598223  .00002969  00000+0  16589-2 0  9994",
        "tle_line2": "2 30411  98.5815 267.3961 0123637  76.8329 284.6602 14.07706849961323"
      },
      "geometry": {
        "type": "Point",
        "coordinates": [
          107.31162651728548,
          65.06101726999053
        ]
      }
    },
    {
      "type": "Feature",
      "properties": {
        "norad_id": 30413,
        "name": "FENGYUN 1C DEB",
        "group": "fengyun-1c-debris",
        "lat": 69.10435706323314,
        "lon": 89.76074685991603,
        "alt_km": 769.605361240041,
        "timestamp": "2025-12-24T07:45:06.475874+00:00",
        "meta_object_name": "FENGYUN 1C DEB",
        "meta_object_id": "1999-025AEC",
        "meta_epoch": "2025-12-23T03:28:06.901248",
        "meta_mean_motion": 14.32641905,
        "meta_eccentricity": 0.0044398,
        "meta_inclination": 102.0623,
        "meta_ra_of_asc_node": 234.0643,
        "meta_arg_of_pericenter": 188.8578,
        "meta_mean_anomaly": 323.8678,
        "meta_ephemeris_type": 0,
        "meta_classification_type": "U",
        "meta_norad_cat_id": 30413,
        "meta_element_set_no": 999,
        "meta_rev_at_epoch": 97288,
        "meta_bstar": 0.0022095446,
        "meta_mean_motion_dot": 6.003e-05,
        "meta_mean_motion_ddot": 0,
        "tle_line1": "1 30413U 99025AEC 25357.14452432  .00006003  00000+0  22095-2 0  9991",
        "tle_line2": "2 30413 102.0623 234.0643 0044398 188.8578 323.8678 14.32641905972888"
      },
      "geometry": {
        "type": "Point",
        "coordinates": [
          89.76074685991603,
          69.10435706323314
        ]
      }
    },
    {
      "type": "Feature",
      "properties": {
        "norad_id": 30414,
        "name": "FENGYUN 1C DEB",
        "group": "fengyun-1c-debris",
        "lat": -77.1598378345449,
        "lon": -68.40583736728134,
        "alt_km": 795.4480777541949,
        "timestamp": "2025-12-24T07:45:06.475884+00:00",
        "meta_object_name": "FENGYUN 1C DEB",
        "meta_object_id": "1999-025AED",
        "meta_epoch": "2025-12-23T22:10:19.906464",
        "meta_mean_motion": 14.3430025,
        "meta_eccentricity": 0.00579466,
        "meta_inclination": 99.0805,
        "meta_ra_of_asc_node": 155.7346,
        "meta_arg_of_pericenter": 156.6504,
        "meta_mean_anomaly": 203.7331,
        "meta_ephemeris_type": 0,
        "meta_classification_type": "U",
        "meta_norad_cat_id": 30414,
        "meta_element_set_no": 999,
        "meta_rev_at_epoch": 97247,
        "meta_bstar": 0.0024206276,
        "meta_mean_motion_dot": 6.887e-05,
        "meta_mean_motion_ddot": 0,
        "tle_line1": "1 30414U 99025AED 25357.92384151  .00006887  00000+0  24206-2 0  9996",
        "tle_line2": "2 30414  99.0805 155.7346 0057946 156.6504 203.7331 14.34300250972474"
      },
      "geometry": {
        "type": "Point",
        "coordinates": [
          -68.40583736728134,
          -77.1598378345449
        ]
      }
    },
    {
      "type": "Feature",
      "properties": {
        "norad_id": 30415,
        "name": "FENGYUN 1C DEB",
        "group": "fengyun-1c-debris",
        "lat": 36.53960839626882,
        "lon": -114.1762477308954,
        "alt_km": 1017.5667555820082,
        "timestamp": "2025-12-24T07:45:06.475894+00:00",
        "meta_object_name": "FENGYUN 1C DEB",
        "meta_object_id": "1999-025AEE",
        "meta_epoch": "2025-12-23T03:06:38.094912",
        "meta_mean_motion": 13.68965837,
        "meta_eccentricity": 0.02401342,
        "meta_inclination": 99.6454,
        "meta_ra_of_asc_node": 57.3898,
        "meta_arg_of_pericenter": 242.6961,
        "meta_mean_anomaly": 144.5379,
        "meta_ephemeris_type": 0,
        "meta_classification_type": "U",
        "meta_norad_cat_id": 30415,
        "meta_element_set_no": 999,
        "meta_rev_at_epoch": 94020,
        "meta_bstar": 0.0013285829,
        "meta_mean_motion_dot": 1.357e-05,
        "meta_mean_motion_ddot": 0,
        "tle_line1": "1 30415U 99025AEE 25357.12960758  .00001357  00000+0  13286-2 0  9995",
        "tle_line2": "2 30415  99.6454  57.3898 0240134 242.6961 144.5379 13.68965837940200"
      },
      "geometry": {
        "type": "Point",
        "coordinates": [
          -114.1762477308954,
          36.53960839626882
        ]
      }
    }
  ]
}